[{"OBJECT_NAME":"HST","OBJECT_ID":"1990-037B","EPOCH":"2026-04-27T05:10:45.771456","MEAN_MOTION":15.30170094,"ECCENTRICITY":0.00016627,"INCLINATION":28.4746,"RA_OF_ASC_NODE":68.7822,"ARG_OF_PERICENTER":301.5243,"MEAN_ANOMALY":58.519,"EPHEMERIS_TYPE":0,"CLASSIFICATION_TYPE":"U","NORAD_CAT_ID":20580,"ELEMENT_SET_NO":999,"REV_AT_EPOCH":78075,"BSTAR":0.00026301973,"MEAN_MOTION_DOT":8.137e-5,"MEAN_MOTION_DDOT":0},{"OBJECT_NAME":"POLAR","OBJECT_ID":"1996-013A","EPOCH":"2026-04-25T15:52:51.335328","MEAN_MOTION":1.29845763,"ECCENTRICITY":0.64176425,"INCLINATION":79.8025,"RA_OF_ASC_NODE":227.6602,"ARG_OF_PERICENTER":210.8763,"MEAN_ANOMALY":86.7147,"EPHEMERIS_TYPE":0,"CLASSIFICATION_TYPE":"U","NORAD_CAT_ID":23802,"ELEMENT_SET_NO":999,"REV_AT_EPOCH":14417,"BSTAR":0,"MEAN_MOTION_DOT":1.8e-7,"MEAN_MOTION_DDOT":0},{"OBJECT_NAME":"SWAS","OBJECT_ID":"1998-071A","EPOCH":"2026-04-27T02:54:44.220096","MEAN_MOTION":15.09265602,"ECCENTRICITY":0.00073189,"INCLINATION":69.8979,"RA_OF_ASC_NODE":359.1736,"ARG_OF_PERICENTER":310.7518,"MEAN_ANOMALY":49.301,"EPHEMERIS_TYPE":0,"CLASSIFICATION_TYPE":"U","NORAD_CAT_ID":25560,"ELEMENT_SET_NO":999,"REV_AT_EPOCH":48956,"BSTAR":0.00030360007,"MEAN_MOTION_DOT":4.746e-5,"MEAN_MOTION_DDOT":0},{"OBJECT_NAME":"CXO","OBJECT_ID":"1999-040B","EPOCH":"2026-04-29T03:09:59.626368","MEAN_MOTION":0.37810555,"ECCENTRICITY":0.791489,"INCLINATION":55.4178,"RA_OF_ASC_NODE":118.0274,"ARG_OF_PERICENTER":310.5929,"MEAN_ANOMALY":0.1646,"EPHEMERIS_TYPE":0,"CLASSIFICATION_TYPE":"U","NORAD_CAT_ID":25867,"ELEMENT_SET_NO":999,"REV_AT_EPOCH":1713,"BSTAR":0,"MEAN_MOTION_DOT":5.62e-6,"MEAN_MOTION_DDOT":0},{"OBJECT_NAME":"XMM-NEWTON","OBJECT_ID":"1999-066A","EPOCH":"2026-04-27T11:42:44.677440","MEAN_MOTION":0.50130113,"ECCENTRICITY":0.46893703,"INCLINATION":64.7433,"RA_OF_ASC_NODE":283.632,"ARG_OF_PERICENTER":65.8291,"MEAN_ANOMALY":0.0919,"EPHEMERIS_TYPE":0,"CLASSIFICATION_TYPE":"U","NORAD_CAT_ID":25989,"ELEMENT_SET_NO":999,"REV_AT_EPOCH":2275,"BSTAR":0,"MEAN_MOTION_DOT":-2.2e-7,"MEAN_MOTION_DDOT":0},{"OBJECT_NAME":"TERRA","OBJECT_ID":"1999-068A","EPOCH":"2026-04-27T06:31:39.515232","MEAN_MOTION":14.61061586,"ECCENTRICITY":0.00031399,"INCLINATION":97.9501,"RA_OF_ASC_NODE":168.8266,"ARG_OF_PERICENTER":53.9282,"MEAN_ANOMALY":10.619,"EPHEMERIS_TYPE":0,"CLASSIFICATION_TYPE":"U","NORAD_CAT_ID":25994,"ELEMENT_SET_NO":999,"REV_AT_EPOCH":40217,"BSTAR":9.6778964e-5,"MEAN_MOTION_DOT":4.31e-6,"MEAN_MOTION_DDOT":0},{"OBJECT_NAME":"CLUSTER II-FM7 (SAMBA)","OBJECT_ID":"2000-041A","EPOCH":"2026-04-26T19:37:20.969184","MEAN_MOTION":0.44809102,"ECCENTRICITY":0.89922964,"INCLINATION":149.6713,"RA_OF_ASC_NODE":42.1462,"ARG_OF_PERICENTER":258.689,"MEAN_ANOMALY":0.4419,"EPHEMERIS_TYPE":0,"CLASSIFICATION_TYPE":"U","NORAD_CAT_ID":26410,"ELEMENT_SET_NO":999,"REV_AT_EPOCH":2007,"BSTAR":0,"MEAN_MOTION_DOT":2.042e-5,"MEAN_MOTION_DDOT":0},{"OBJECT_NAME":"CLUSTER II-FM8 (TANGO)","OBJECT_ID":"2000-045B","EPOCH":"2026-04-28T21:15:50.017248","MEAN_MOTION":0.44400781,"ECCENTRICITY":0.8998119,"INCLINATION":149.9537,"RA_OF_ASC_NODE":43.4083,"ARG_OF_PERICENTER":259.8366,"MEAN_ANOMALY":1.1072,"EPHEMERIS_TYPE":0,"CLASSIFICATION_TYPE":"U","NORAD_CAT_ID":26464,"ELEMENT_SET_NO":999,"REV_AT_EPOCH":2007,"BSTAR":0,"MEAN_MOTION_DOT":2.324e-5,"MEAN_MOTION_DDOT":0},{"OBJECT_NAME":"ODIN","OBJECT_ID":"2001-007A","EPOCH":"2026-04-27T01:26:03.895584","MEAN_MOTION":15.63355547,"ECCENTRICITY":0.00016415,"INCLINATION":97.3969,"RA_OF_ASC_NODE":155.2367,"ARG_OF_PERICENTER":37.8799,"MEAN_ANOMALY":322.2574,"EPHEMERIS_TYPE":0,"CLASSIFICATION_TYPE":"U","NORAD_CAT_ID":26702,"ELEMENT_SET_NO":999,"REV_AT_EPOCH":38138,"BSTAR":0.00054379598,"MEAN_MOTION_DOT":0.00050086,"MEAN_MOTION_DDOT":0},{"OBJECT_NAME":"TIMED","OBJECT_ID":"2001-055B","EPOCH":"2026-04-27T00:35:08.015712","MEAN_MOTION":14.95169763,"ECCENTRICITY":0.00017275,"INCLINATION":74.0683,"RA_OF_ASC_NODE":338.0281,"ARG_OF_PERICENTER":210.3841,"MEAN_ANOMALY":149.7244,"EPHEMERIS_TYPE":0,"CLASSIFICATION_TYPE":"U","NORAD_CAT_ID":26998,"ELEMENT_SET_NO":999,"REV_AT_EPOCH":32317,"BSTAR":0.00010159228,"MEAN_MOTION_DOT":1.076e-5,"MEAN_MOTION_DDOT":0},{"OBJECT_NAME":"CORIOLIS","OBJECT_ID":"2003-001A","EPOCH":"2026-04-27T00:56:41.367552","MEAN_MOTION":14.19930089,"ECCENTRICITY":0.00140399,"INCLINATION":98.7144,"RA_OF_ASC_NODE":124.7027,"ARG_OF_PERICENTER":5.3357,"MEAN_ANOMALY":354.7966,"EPHEMERIS_TYPE":0,"CLASSIFICATION_TYPE":"U","NORAD_CAT_ID":27640,"ELEMENT_SET_NO":999,"REV_AT_EPOCH":20696,"BSTAR":7.8278145e-5,"MEAN_MOTION_DOT":1.23e-6,"MEAN_MOTION_DDOT":0},{"OBJECT_NAME":"SORCE","OBJECT_ID":"2003-004A","EPOCH":"2026-04-27T06:16:46.717248","MEAN_MOTION":15.03429856,"ECCENTRICITY":0.00163272,"INCLINATION":39.99,"RA_OF_ASC_NODE":192.1629,"ARG_OF_PERICENTER":43.3459,"MEAN_ANOMALY":316.8616,"EPHEMERIS_TYPE":0,"CLASSIFICATION_TYPE":"U","NORAD_CAT_ID":27651,"ELEMENT_SET_NO":999,"REV_AT_EPOCH":26423,"BSTAR":0.00025841767,"MEAN_MOTION_DOT":3.438e-5,"MEAN_MOTION_DDOT":0},{"OBJECT_NAME":"MOST","OBJECT_ID":"2003-031D","EPOCH":"2026-04-27T07:32:34.424448","MEAN_MOTION":14.21311527,"ECCENTRICITY":0.00106294,"INCLINATION":98.7064,"RA_OF_ASC_NODE":125.7477,"ARG_OF_PERICENTER":44.4012,"MEAN_ANOMALY":315.8015,"EPHEMERIS_TYPE":0,"CLASSIFICATION_TYPE":"U","NORAD_CAT_ID":27843,"ELEMENT_SET_NO":999,"REV_AT_EPOCH":18348,"BSTAR":5.7084916e-5,"MEAN_MOTION_DOT":8.1e-7,"MEAN_MOTION_DDOT":0},{"OBJECT_NAME":"SCISAT 1","OBJECT_ID":"2003-036A","EPOCH":"2026-04-27T04:08:04.464960","MEAN_MOTION":14.8138837,"ECCENTRICITY":0.00075914,"INCLINATION":73.9289,"RA_OF_ASC_NODE":272.6966,"ARG_OF_PERICENTER":339.3537,"MEAN_ANOMALY":20.7331,"EPHEMERIS_TYPE":0,"CLASSIFICATION_TYPE":"U","NORAD_CAT_ID":27858,"ELEMENT_SET_NO":999,"REV_AT_EPOCH":22389,"BSTAR":9.9353297e-5,"MEAN_MOTION_DOT":7.41e-6,"MEAN_MOTION_DDOT":0},{"OBJECT_NAME":"SWIFT","OBJECT_ID":"2004-047A","EPOCH":"2026-04-26T14:02:47.411808","MEAN_MOTION":15.63634576,"ECCENTRICITY":0.000168,"INCLINATION":20.5524,"RA_OF_ASC_NODE":221.4796,"ARG_OF_PERICENTER":332.8404,"MEAN_ANOMALY":27.1953,"EPHEMERIS_TYPE":0,"CLASSIFICATION_TYPE":"U","NORAD_CAT_ID":28485,"ELEMENT_SET_NO":999,"REV_AT_EPOCH":17876,"BSTAR":0.0005222,"MEAN_MOTION_DOT":0.0005191,"MEAN_MOTION_DDOT":0},{"OBJECT_NAME":"HINODE (SOLAR-B)","OBJECT_ID":"2006-041A","EPOCH":"2026-04-27T06:57:00.671040","MEAN_MOTION":14.68547722,"ECCENTRICITY":0.00189605,"INCLINATION":98.0578,"RA_OF_ASC_NODE":134.1893,"ARG_OF_PERICENTER":89.9779,"MEAN_ANOMALY":270.3599,"EPHEMERIS_TYPE":0,"CLASSIFICATION_TYPE":"U","NORAD_CAT_ID":29479,"ELEMENT_SET_NO":999,"REV_AT_EPOCH":4740,"BSTAR":0.00015173712,"MEAN_MOTION_DOT":8.34e-6,"MEAN_MOTION_DDOT":0},{"OBJECT_NAME":"SHIJIAN-6 02A (SJ-6 02A)","OBJECT_ID":"2006-046A","EPOCH":"2026-04-27T06:56:21.729696","MEAN_MOTION":15.16357278,"ECCENTRICITY":0.00020661,"INCLINATION":97.6416,"RA_OF_ASC_NODE":157.9852,"ARG_OF_PERICENTER":351.4806,"MEAN_ANOMALY":8.6391,"EPHEMERIS_TYPE":0,"CLASSIFICATION_TYPE":"U","NORAD_CAT_ID":29505,"ELEMENT_SET_NO":999,"REV_AT_EPOCH":6455,"BSTAR":0.0004344061,"MEAN_MOTION_DOT":8.363e-5,"MEAN_MOTION_DDOT":0}]
